{
  "type": "FeatureCollection",
  "features": [
    {
      "type": "Feature",
      "properties": {
        "norad_id": 34634,
        "name": "COSMOS 2251 DEB",
        "group": "cosmos-2251-debris",
        "lat": -52.95802730388452,
        "lon": 31.182095115451155,
        "alt_km": 738.4392362150256,
        "timestamp": "2025-12-02T23:34:15.911993+00:00",
        "meta_object_name": "COSMOS 2251 DEB",
        "meta_object_id": "1993-036XF",
        "meta_epoch": "2025-12-01T15:25:16.130784",
        "meta_mean_motion": 14.55598707,
        "meta_eccentricity": 0.00448231,
        "meta_inclination": 74.0528,
        "meta_ra_of_asc_node": 55.9806,
        "meta_arg_of_pericenter": 166.4677,
        "meta_mean_anomaly": 320.4107,
        "meta_ephemeris_type": 0,
        "meta_classification_type": "U",
        "meta_norad_cat_id": 34634,
        "meta_element_set_no": 999,
        "meta_rev_at_epoch": 88620,
        "meta_bstar": 0.00043465787,
        "meta_mean_motion_dot": 1.893e-05,
        "meta_mean_motion_ddot": 0,
        "tle_line1": "1 34634U 93036XF  25335.64254781  .00001893  00000+0  43466-3 0  9992",
        "tle_line2": "2 34634  74.0528  55.9806 0044823 166.4677 320.4107 14.55598707886201"
      },
      "geometry": {
        "type": "Point",
        "coordinates": [
          31.182095115451155,
          -52.95802730388452
        ]
      }
    },
    {
      "type": "Feature",
      "properties": {
        "norad_id": 34635,
        "name": "COSMOS 2251 DEB",
        "group": "cosmos-2251-debris",
        "lat": 73.49362391444265,
        "lon": 164.45477550925847,
        "alt_km": 654.7694758060661,
        "timestamp": "2025-12-02T23:34:15.912003+00:00",
        "meta_object_name": "COSMOS 2251 DEB",
        "meta_object_id": "1993-036XG",
        "meta_epoch": "2025-12-02T10:25:22.027872",
        "meta_mean_motion": 14.68000816,
        "meta_eccentricity": 0.0029755,
        "meta_inclination": 74.045,
        "meta_ra_of_asc_node": 90.6251,
        "meta_arg_of_pericenter": 162.5942,
        "meta_mean_anomaly": 269.4264,
        "meta_ephemeris_type": 0,
        "meta_classification_type": "U",
        "meta_norad_cat_id": 34635,
        "meta_element_set_no": 999,
        "meta_rev_at_epoch": 73068,
        "meta_bstar": 0.0018652,
        "meta_mean_motion_dot": 0.00010748,
        "meta_mean_motion_ddot": 0,
        "tle_line1": "1 34635U 93036XG  25336.43428273  .00010748  00000+0  18652-2 0  9997",
        "tle_line2": "2 34635  74.0450  90.6251 0029755 162.5942 269.4264 14.68000816730684"
      },
      "geometry": {
        "type": "Point",
        "coordinates": [
          164.45477550925847,
          73.49362391444265
        ]
      }
    },
    {
      "type": "Feature",
      "properties": {
        "norad_id": 34637,
        "name": "COSMOS 2251 DEB",
        "group": "cosmos-2251-debris",
        "lat": -20.928054921901744,
        "lon": -53.957633556164744,
        "alt_km": 662.9034295614529,
        "timestamp": "2025-12-02T23:34:15.912035+00:00",
        "meta_object_name": "COSMOS 2251 DEB",
        "meta_object_id": "1993-036XJ",
        "meta_epoch": "2025-12-02T11:23:57.390720",
        "meta_mean_motion": 14.59920364,
        "meta_eccentricity": 0.0050738,
        "meta_inclination": 74.0474,
        "meta_ra_of_asc_node": 120.7289,
        "meta_arg_of_pericenter": 193.5429,
        "meta_mean_anomaly": 223.6699,
        "meta_ephemeris_type": 0,
        "meta_classification_type": "U",
        "meta_norad_cat_id": 34637,
        "meta_element_set_no": 999,
        "meta_rev_at_epoch": 88377,
        "meta_bstar": 0.0014507,
        "meta_mean_motion_dot": 7.053e-05,
        "meta_mean_motion_ddot": 0,
        "tle_line1": "1 34637U 93036XJ  25336.47496980  .00007053  00000+0  14507-2 0  9993",
        "tle_line2": "2 34637  74.0474 120.7289 0050738 193.5429 223.6699 14.59920364883779"
      },
      "geometry": {
        "type": "Point",
        "coordinates": [
          -53.957633556164744,
          -20.928054921901744
        ]
      }
    },
    {
      "type": "Feature",
      "properties": {
        "norad_id": 34641,
        "name": "COSMOS 2251 DEB",
        "group": "cosmos-2251-debris",
        "lat": 59.8248761201058,
        "lon": -109.67029411975606,
        "alt_km": 715.0034433604696,
        "timestamp": "2025-12-02T23:34:15.912046+00:00",
        "meta_object_name": "COSMOS 2251 DEB",
        "meta_object_id": "1993-036XN",
        "meta_epoch": "2025-12-02T10:04:27.186240",
        "meta_mean_motion": 14.51860624,
        "meta_eccentricity": 0.0017485,
        "meta_inclination": 73.8377,
        "meta_ra_of_asc_node": 101.3202,
        "meta_arg_of_pericenter": 19.4191,
        "meta_mean_anomaly": 38.0033,
        "meta_ephemeris_type": 0,
        "meta_classification_type": "U",
        "meta_norad_cat_id": 34641,
        "meta_element_set_no": 999,
        "meta_rev_at_epoch": 88106,
        "meta_bstar": 0.0013563,
        "meta_mean_motion_dot": 5.449e-05,
        "meta_mean_motion_ddot": 0,
        "tle_line1": "1 34641U 93036XN  25336.41975910  .00005449  00000+0  13563-2 0  9995",
        "tle_line2": "2 34641  73.8377 101.3202 0017485  19.4191  38.0033 14.51860624881061"
      },
      "geometry": {
        "type": "Point",
        "coordinates": [
          -109.67029411975606,
          59.8248761201058
        ]
      }
    },
    {
      "type": "Feature",
      "properties": {
        "norad_id": 34642,
        "name": "COSMOS 2251 DEB",
        "group": "cosmos-2251-debris",
        "lat": -72.17144435043984,
        "lon": -120.19402710722815,
        "alt_km": 883.5730194441658,
        "timestamp": "2025-12-02T23:34:15.912057+00:00",
        "meta_object_name": "COSMOS 2251 DEB",
        "meta_object_id": "1993-036XP",
        "meta_epoch": "2025-12-02T12:46:37.237152",
        "meta_mean_motion": 13.98923029,
        "meta_eccentricity": 0.0208176,
        "meta_inclination": 74.0054,
        "meta_ra_of_asc_node": 357.4817,
        "meta_arg_of_pericenter": 179.6454,
        "meta_mean_anomaly": 335.8761,
        "meta_ephemeris_type": 0,
        "meta_classification_type": "U",
        "meta_norad_cat_id": 34642,
        "meta_element_set_no": 999,
        "meta_rev_at_epoch": 85150,
        "meta_bstar": 0.0012854,
        "meta_mean_motion_dot": 2.21e-05,
        "meta_mean_motion_ddot": 0,
        "tle_line1": "1 34642U 93036XP  25336.53237543  .00002210  00000+0  12854-2 0  9997",
        "tle_line2": "2 34642  74.0054 357.4817 0208176 179.6454 335.8761 13.98923029851504"
      },
      "geometry": {
        "type": "Point",
        "coordinates": [
          -120.19402710722815,
          -72.17144435043984
        ]
      }
    },
    {
      "type": "Feature",
      "properties": {
        "norad_id": 34671,
        "name": "COSMOS 2251 DEB",
        "group": "cosmos-2251-debris",
        "lat": 55.19693160919481,
        "lon": 177.46565361240806,
        "alt_km": 674.714168023298,
        "timestamp": "2025-12-02T23:34:15.912067+00:00",
        "meta_object_name": "COSMOS 2251 DEB",
        "meta_object_id": "1993-036XR",
        "meta_epoch": "2025-12-02T11:59:11.965920",
        "meta_mean_motion": 14.66629636,
        "meta_eccentricity": 0.0012147,
        "meta_inclination": 74.0248,
        "meta_ra_of_asc_node": 154.0583,
        "meta_arg_of_pericenter": 232.406,
        "meta_mean_anomaly": 158.8678,
        "meta_ephemeris_type": 0,
        "meta_classification_type": "U",
        "meta_norad_cat_id": 34671,
        "meta_element_set_no": 999,
        "meta_rev_at_epoch": 88147,
        "meta_bstar": 0.0017771,
        "meta_mean_motion_dot": 9.871e-05,
        "meta_mean_motion_ddot": 0,
        "tle_line1": "1 34671U 93036XR  25336.49944405  .00009871  00000+0  17771-2 0  9999",
        "tle_line2": "2 34671  74.0248 154.0583 0012147 232.4060 158.8678 14.66629636881476"
      },
      "geometry": {
        "type": "Point",
        "coordinates": [
          177.46565361240806,
          55.19693160919481
        ]
      }
    },
    {
      "type": "Feature",
      "properties": {
        "norad_id": 34672,
        "name": "COSMOS 2251 DEB",
        "group": "cosmos-2251-debris",
        "lat": -42.67842522520124,
        "lon": 158.82929202204556,
        "alt_km": 793.197008867307,
        "timestamp": "2025-12-02T23:34:15.912078+00:00",
        "meta_object_name": "COSMOS 2251 DEB",
        "meta_object_id": "1993-036XS",
        "meta_epoch": "2025-11-27T17:59:07.575072",
        "meta_mean_motion": 14.36372529,
        "meta_eccentricity": 0.00231464,
        "meta_inclination": 74.0336,
        "meta_ra_of_asc_node": 333.1322,
        "meta_arg_of_pericenter": 49.1675,
        "meta_mean_anomaly": 128.2584,
        "meta_ephemeris_type": 0,
        "meta_classification_type": "U",
        "meta_norad_cat_id": 34672,
        "meta_element_set_no": 999,
        "meta_rev_at_epoch": 64962,
        "meta_bstar": 0.00025061703,
        "meta_mean_motion_dot": 7.1e-06,
        "meta_mean_motion_ddot": 0,
        "tle_line1": "1 34672U 93036XS  25331.74939323  .00000710  00000+0  25062-3 0  9992",
        "tle_line2": "2 34672  74.0336 333.1322 0023146  49.1675 128.2584 14.36372529649621"
      },
      "geometry": {
        "type": "Point",
        "coordinates": [
          158.82929202204556,
          -42.67842522520124
        ]
      }
    }
  ]
}